ONEWEB-0281             
1 48999U 21060AJ  23333.25611151  .00000061  00000+0  12473-3 0  9990
2 48999  87.9091  54.0489 0001680  93.0591 267.0733 13.16594571117130
ONEWEB-0282             
1 49000U 21060AK  23333.28566619  .00000169  00000+0  40807-3 0  9996
2 49000  87.9091  54.0597 0001520 116.6312 243.4975 13.16593388117119
ONEWEB-0283             
1 49001U 21060AL  23333.73109887 -.00000973  00000+0 -25784-2 0  9998
2 49001  87.9118  53.9841 0001492  88.5363 271.5938 13.16584807118502
ONEWEB-0284             
1 49002U 21060AM  23333.26877622  .00000079  00000+0  17403-3 0  9991
2 49002  87.9076  54.0707 0001624 114.1581 245.9720 13.16594283117102
ONEWEB-0285             
1 49075U 21075A   23333.58663105  .00001225  00000+0  33600-2 0  9991
2 49075  87.9010 175.7520 0002101  97.6291 262.5076 13.12640214113149
ONEWEB-0286             
1 49076U 21075B   23333.55789640  .00000908  00000+0  24896-2 0  9996
2 49076  87.9008 175.7672 0001870  78.0417 282.0921 13.12439528112497
ONEWEB-0287             
1 49077U 21075C   23333.57073863  .00000041  00000+0  71290-4 0  9992
2 49077  87.9216 190.8633 0001874  88.6353 271.4993 13.17648179111077
ONEWEB-0288             
1 49078U 21075D   23333.61824715  .00000108  00000+0  26577-3 0  9999
2 49078  87.9007 175.7598 0001673  88.8622 271.2698 13.12447204113125
